0 FENGYUN 1C DEB
1 33639U 99025DDY 13283.29848414  .00001609  00000-0  84877-3 0  2295
2 33639 098.9862 303.1415 0073085 136.2643 224.4644 14.13989135283444
0 FENGYUN 1C DEB
1 33639U 99025DDY 13285.27979484  .00001710  00000-0  90019-3 0  2307
2 33639 098.9869 305.1345 0073332 130.6886 230.0737 14.13997586283723
0 FENGYUN 1C DEB
1 33639U 99025DDY 13290.86988283  .00001884  00000-0  98832-3 0  2319
2 33639 098.9875 310.7552 0073778 114.5663 246.4089 14.14021644284513
0 FENGYUN 1C DEB
1 33639U 99025DDY 13292.28505937  .00001983  00000-0  10391-2 0  2322
2 33639 098.9865 312.1785 0073520 110.6309 250.3079 14.14029071284712
0 FENGYUN 1C DEB
1 33639U 99025DDY 13294.90314092  .00002138  00000-0  11181-2 0  2335
2 33639 098.9849 314.8067 0073614 103.8513 257.1463 14.14042980285088
